
 1 90033U RELEAS14 00051.92409179 +.00000011  00000 0  00000 0 4 0041                                                                                                                                                                                                                                                                                                                                                                                                                                                           
 2 90033  52.6683  23.9378 0137366 276.7208  81.7737  6.4729361700921                                                                                                                                                                                                                                                                                                                                                                                                                                                           

         0.0000000        6.4729391        0.0137366       52.6683000       23.9378000      276.7208000       81.7737000
      2700.0000000        6.4729391        0.0137353       52.6692647       22.7531011      277.5678878      131.0765061
      5400.0000000        6.4729391        0.0137348       52.6696662       21.5686820      278.4120607      180.3817566
      8100.0000000        6.4729391        0.0137356       52.6696240       20.3840346      279.2567756      229.6868592
     10800.0000000        6.4729391        0.0137372       52.6694933       19.1989489      280.1049475      278.9892637
     13500.0000000        6.4729391        0.0137387       52.6696184       18.0135240      280.9570171      328.2883473
     16200.0000000        6.4729391        0.0137395       52.6701816       16.8280746      281.8106192       17.5859021
     18900.0000000        6.4729391        0.0137395       52.6711005       15.6429857      282.6618006       66.8851794
     21600.0000000        6.4729391        0.0137396       52.6720100       14.4584789      283.5078034      116.1885233
     24300.0000000        6.4729391        0.0137407       52.6724548       13.2743714      284.3496758      165.4951844
     27000.0000000        6.4729391        0.0137429       52.6722742       12.0901073      285.1913854      214.8021535
     29700.0000000        6.4729391        0.0137456       52.6718239       10.9051967      286.0361158      264.1071018
     32400.0000000        6.4729391        0.0137481       52.6717114        9.7196981      286.8845957      313.4092187
     35100.0000000        6.4729391        0.0137497       52.6722350        8.5342273      287.7357969        2.7085125
     37800.0000000        6.4729391        0.0137501       52.6730733        7.3494103      288.5868173       52.0068816
     40500.0000000        6.4729391        0.0137498       52.6735937        6.1652924      289.4337351      101.3082565
     43200.0000000        6.4729391        0.0137501       52.6734698        4.9813536      290.2755822      150.6145488


 1 90034U RELEAS14 00051.38558242 +.00711372  97635-5  13083-2 4 0021                                                                                                                                                                                                                                                                                                                                                                                                                                                           
 2 90034  62.8218  97.3466 0233042 119.4400 242.9881 17.6709972501011                                                                                                                                                                                                                                                                                                                                                                                                                                                           

         0.0000000       17.6710052        0.0233042       62.8218000       97.3466000      119.4400000      242.9881000
Warning: Decay condition. Distance from the Geoid (Km) =    -79.929

